{"type": "FeatureCollection", "features": [ {"type": "Feature", "properties": {"norad_id": 30941, "name": "FENGYUN 1C DEB", "group": "fengyun-1c-debris", "lat": 25.89096007885428, "lon": 27.86595383030369, "alt_km": 810.8007789616822, "timestamp": "2025-12-12T20:43:07.314735+00:00", "meta": {"OBJECT_NAME": "FENGYUN 1C DEB", "OBJECT_ID": "1999-025BAF", "EPOCH": "2025-12-10T12:37:27.909408", "MEAN_MOTION": 14.31003264, "ECCENTRICITY": 0.0034282, "INCLINATION": 98.5459, "RA_OF_ASC_NODE": 201.3824, "ARG_OF_PERICENTER": 323.3554, "MEAN_ANOMALY": 36.5284, "EPHEMERIS_TYPE": 0, "CLASSIFICATION_TYPE": "U", "NORAD_CAT_ID": 30941, "ELEMENT_SET_NO": 999, "REV_AT_EPOCH": 96594, "BSTAR": 0.0028954, "MEAN_MOTION_DOT": 7.631e-05, "MEAN_MOTION_DDOT": 0}, "tle": {"line1": "1 30941U 99025BAF 25344.52601747  .00007631  00000+0  28954-2 0  9998", "line2": "2 30941  98.5459 201.3824 0034282 323.3554  36.5284 14.31003264965948"}}, "geometry": {"type": "Point", "coordinates": [27.86595383030369, 25.89096007885428]}}, {"type": "Feature", "properties": {"norad_id": 30942, "name": "FENGYUN 1C DEB", "group": "fengyun-1c-debris", "lat": 24.331647238574057, "lon": 169.062238682211, "alt_km": 776.4953738597396, "timestamp": "2025-12-12T20:43:07.314745+00:00", "meta": {"OBJECT_NAME": "FENGYUN 1C DEB", "OBJECT_ID": "1999-025BAG", "EPOCH": "2025-12-10T11:01:13.742112", "MEAN_MOTION": 14.14834633, "ECCENTRICITY": 0.01379705, "INCLINATION": 98.6797, "RA_OF_ASC_NODE": 342.7629, "ARG_OF_PERICENTER": 112.7712, "MEAN_ANOMALY": 43.1485, "EPHEMERIS_TYPE": 0, "CLASSIFICATION_TYPE": "U", "NORAD_CAT_ID": 30942, "ELEMENT_SET_NO": 999, "REV_AT_EPOCH": 96612, "BSTAR": 0.00030431529, "MEAN_MOTION_DOT": 6.02e-06, "MEAN_MOTION_DDOT": 0}, "tle": {"line1": "1 30942U 99025BAG 25344.45918683  .00000602  00000+0  30432-3 0  9997", "line2": "2 30942  98.6797 342.7629 0137970 112.7712  43.1485 14.14834633966123"}}, "geometry": {"type": "Point", "coordinates": [169.062238682211, 24.331647238574057]}}, {"type": "Feature", "properties": {"norad_id": 30943, "name": "FENGYUN 1C DEB", "group": "fengyun-1c-debris", "lat": 50.90791863790193, "lon": -168.23174313117343, "alt_km": 856.5442084699025, "timestamp": "2025-12-12T20:43:07.314755+00:00", "meta": {"OBJECT_NAME": "FENGYUN 1C DEB", "OBJECT_ID": "1999-025BAH", "EPOCH": "2025-12-11T11:37:48.593280", "MEAN_MOTION": 14.04485324, "ECCENTRICITY": 0.00508872, "INCLINATION": 98.7973, "RA_OF_ASC_NODE": 359.4445, "ARG_OF_PERICENTER": 69.2045, "MEAN_ANOMALY": 291.4563, "EPHEMERIS_TYPE": 0, "CLASSIFICATION_TYPE": "U", "NORAD_CAT_ID": 30943, "ELEMENT_SET_NO": 999, "REV_AT_EPOCH": 95724, "BSTAR": 0.00048709138, "MEAN_MOTION_DOT": 7.44e-06, "MEAN_MOTION_DDOT": 0}, "tle": {"line1": "1 30943U 99025BAH 25345.48459020  .00000744  00000+0  48709-3 0  9990", "line2": "2 30943  98.7973 359.4445 0050887  69.2045 291.4563 14.04485324957244"}}, "geometry": {"type": "Point", "coordinates": [-168.23174313117343, 50.90791863790193]}}, {"type": "Feature", "properties": {"norad_id": 30944, "name": "FENGYUN 1C DEB", "group": "fengyun-1c-debris", "lat": -30.364810888812038, "lon": 47.806237584598115, "alt_km": 792.1503784552606, "timestamp": "2025-12-12T20:43:07.314765+00:00", "meta": {"OBJECT_NAME": "FENGYUN 1C DEB", "OBJECT_ID": "1999-025BAJ", "EPOCH": "2025-12-12T02:48:52.609248", "MEAN_MOTION": 14.52442267, "ECCENTRICITY": 0.01493237, "INCLINATION": 98.8506, "RA_OF_ASC_NODE": 41.782, "ARG_OF_PERICENTER": 102.5283, "MEAN_ANOMALY": 289.6676, "EPHEMERIS_TYPE": 0, "CLASSIFICATION_TYPE": "U", "NORAD_CAT_ID": 30944, "ELEMENT_SET_NO": 999, "REV_AT_EPOCH": 99067, "BSTAR": 0.00024084626, "MEAN_MOTION_DOT": 1.08e-05, "MEAN_MOTION_DDOT": 0}, "tle": {"line1": "1 30944U 99025BAJ 25346.11727557  .00001080  00000+0  24085-3 0  9990", "line2": "2 30944  98.8506  41.7820 0149323 102.5283 289.6676 14.52442267990675"}}, "geometry": {"type": "Point", "coordinates": [47.806237584598115, -30.364810888812038]}}, {"type": "Feature", "properties": {"norad_id": 30945, "name": "FENGYUN 1C DEB", "group": "fengyun-1c-debris", "lat": 69.75591126406121, "lon": -31.11646439038114, "alt_km": 767.6873821458294, "timestamp": "2025-12-12T20:43:07.314776+00:00", "meta": {"OBJECT_NAME": "FENGYUN 1C DEB", "OBJECT_ID": "1999-025BAK", "EPOCH": "2025-12-12T07:01:21.161856", "MEAN_MOTION": 14.29708162, "ECCENTRICITY": 0.00306042, "INCLINATION": 99.3881, "RA_OF_ASC_NODE": 354.9223, "ARG_OF_PERICENTER": 39.479, "MEAN_ANOMALY": 336.7453, "EPHEMERIS_TYPE": 0, "CLASSIFICATION_TYPE": "U", "NORAD_CAT_ID": 30945, "ELEMENT_SET_NO": 999, "REV_AT_EPOCH": 96431, "BSTAR": 0.0027151014, "MEAN_MOTION_DOT": 6.956e-05, "MEAN_MOTION_DDOT": 0}, "tle": {"line1": "1 30945U 99025BAK 25346.29260604  .00006956  00000+0  27151-2 0  9998", "line2": "2 30945  99.3881 354.9223 0030604  39.4790 336.7453 14.29708162964318"}}, "geometry": {"type": "Point", "coordinates": [-31.11646439038114, 69.75591126406121]}}, {"type": "Feature", "properties": {"norad_id": 30946, "name": "FENGYUN 1C DEB", "group": "fengyun-1c-debris", "lat": 33.86783792214781, "lon": 95.92693658165247, "alt_km": 788.340001991879, "timestamp": "2025-12-12T20:43:07.314798+00:00", "meta": {"OBJECT_NAME": "FENGYUN 1C DEB", "OBJECT_ID": "1999-025BAL", "EPOCH": "2025-12-10T19:30:44.954784", "MEAN_MOTION": 14.48128089, "ECCENTRICITY": 0.00893348, "INCLINATION": 99.0389, "RA_OF_ASC_NODE": 99.8685, "ARG_OF_PERICENTER": 198.6165, "MEAN_ANOMALY": 313.7183, "EPHEMERIS_TYPE": 0, "CLASSIFICATION_TYPE": "U", "NORAD_CAT_ID": 30946, "ELEMENT_SET_NO": 999, "REV_AT_EPOCH": 98323, "BSTAR": 0.0014069828, "MEAN_MOTION_DOT": 5.459e-05, "MEAN_MOTION_DDOT": 0}, "tle": {"line1": "1 30946U 99025BAL 25344.81302031  .00005459  00000+0  14070-2 0  9999", "line2": "2 30946  99.0389  99.8685 0089334 198.6165 313.7183 14.48128089983236"}}, "geometry": {"type": "Point", "coordinates": [95.92693658165247, 33.86783792214781]}}, {"type": "Feature", "properties": {"norad_id": 30947, "name": "FENGYUN 1C DEB", "group": "fengyun-1c-debris", "lat": 73.98443421454127, "lon": 89.20086951193584, "alt_km": 812.9695461250949, "timestamp": "2025-12-12T20:43:07.314809+00:00", "meta": {"OBJECT_NAME": "FENGYUN 1C DEB", "OBJECT_ID": "1999-025BAM", "EPOCH": "2025-12-11T22:31:23.590272", "MEAN_MOTION": 14.38039301, "ECCENTRICITY": 0.0095735, "INCLINATION": 98.8086, "RA_OF_ASC_NODE": 235.5548, "ARG_OF_PERICENTER": 250.118, "MEAN_ANOMALY": 108.967, "EPHEMERIS_TYPE": 0, "CLASSIFICATION_TYPE": "U", "NORAD_CAT_ID": 30947, "ELEMENT_SET_NO": 999, "REV_AT_EPOCH": 98481, "BSTAR": 0.00047231, "MEAN_MOTION_DOT": 1.458e-05, "MEAN_MOTION_DDOT": 0}, "tle": {"line1": "1 30947U 99025BAM 25345.93846748  .00001458  00000+0  47231-3 0  9993", "line2": "2 30947  98.8086 235.5548 0095735 250.1180 108.9670 14.38039301984815"}}, "geometry": {"type": "Point", "coordinates": [89.20086951193584, 73.98443421454127]}}, {"type": "Feature", "properties": {"norad_id": 30949, "name": "FENGYUN 1C DEB", "group": "fengyun-1c-debris", "lat": 22.03625807768684, "lon": -22.341865026066206, "alt_km": 819.5937399172744, "timestamp": "2025-12-12T20:43:07.314819+00:00", "meta": {"OBJECT_NAME": "FENGYUN 1C DEB", "OBJECT_ID": "1999-025BAP", "EPOCH": "2025-12-11T22:40:25.135104", "MEAN_MOTION": 14.14046632, "ECCENTRICITY": 0.0116423, "INCLINATION": 98.6978, "RA_OF_ASC_NODE": 340.3164, "ARG_OF_PERICENTER": 312.1354, "MEAN_ANOMALY": 75.7141, "EPHEMERIS_TYPE": 0, "CLASSIFICATION_TYPE": "U", "NORAD_CAT_ID": 30949, "ELEMENT_SET_NO": 999, "REV_AT_EPOCH": 96505, "BSTAR": 0.00038307, "MEAN_MOTION_DOT": 7.33e-06, "MEAN_MOTION_DDOT": 0}, "tle": {"line1": "1 30949U 99025BAP 25345.94473536  .00000733  00000+0  38307-3 0  9996", "line2": "2 30949  98.6978 340.3164 0116423 312.1354  75.7141 14.14046632965052"}}, "geometry": {"type": "Point", "coordinates": [-22.341865026066206, 22.03625807768684]}}, {"type": "Feature", "properties": {"norad_id": 30954, "name": "FENGYUN 1C DEB", "group": "fengyun-1c-debris", "lat": 62.12099040463146, "lon": 70.12436588245633, "alt_km": 886.9214702097161, "timestamp": "2025-12-12T20:43:07.314830+00:00", "meta": {"OBJECT_NAME": "FENGYUN 1C DEB", "OBJECT_ID": "1999-025BAU", "EPOCH": "2025-12-12T05:17:01.043808", "MEAN_MOTION": 14.14928786, "ECCENTRICITY": 0.01287596, "INCLINATION": 98.7122, "RA_OF_ASC_NODE": 86.3459, "ARG_OF_PERICENTER": 188.7885, "MEAN_ANOMALY": 201.8117, "EPHEMERIS_TYPE": 0, "CLASSIFICATION_TYPE": "U", "NORAD_CAT_ID": 30954, "ELEMENT_SET_NO": 999, "REV_AT_EPOCH": 96380, "BSTAR": 0.0021112227, "MEAN_MOTION_DOT": 4.38e-05, "MEAN_MOTION_DDOT": 0}, "tle": {"line1": "1 30954U 99025BAU 25346.22015097  .00004380  00000+0  21112-2 0  9995", "line2": "2 30954  98.7122  86.3459 0128759 188.7885 201.8117 14.14928786963800"}}, "geometry": {"type": "Point", "coordinates": [70.12436588245633, 62.12099040463146]}}, {"type": "Feature", "properties": {"norad_id": 30956, "name": "FENGYUN 1C DEB", "group": "fengyun-1c-debris", "lat": 60.28816859414691, "lon": 5.19984906268792, "alt_km": 832.0717493220318, "timestamp": "2025-12-12T20:43:07.314840+00:00", "meta": {"OBJECT_NAME": "FENGYUN 1C DEB", "OBJECT_ID": "1999-025BAW", "EPOCH": "2025-12-11T21:09:49.317984", "MEAN_MOTION": 14.14202895, "ECCENTRICITY": 0.0049219, "INCLINATION": 98.7601, "RA_OF_ASC_NODE": 19.9138, "ARG_OF_PERICENTER": 345.4972, "MEAN_ANOMALY": 121.5528, "EPHEMERIS_TYPE": 0, "CLASSIFICATION_TYPE": "U", "NORAD_CAT_ID": 30956, "ELEMENT_SET_NO": 999, "REV_AT_EPOCH": 96295, "BSTAR": 0.0013824, "MEAN_MOTION_DOT": 2.624e-05, "MEAN_MOTION_DDOT": 0}, "tle": {"line1": "1 30956U 99025BAW 25345.88182081  .00002624  00000+0  13824-2 0  9996", "line2": "2 30956  98.7601  19.9138 0049219 345.4972 121.5528 14.14202895962957"}}, "geometry": {"type": "Point", "coordinates": [5.19984906268792, 60.28816859414691]}}]}